OBJECT_NAME,OBJECT_ID,EPOCH,MEAN_MOTION,ECCENTRICITY,INCLINATION,RA_OF_ASC_NODE,ARG_OF_PERICENTER,MEAN_ANOMALY,EPHEMERIS_TYPE,CLASSIFICATION_TYPE,NORAD_CAT_ID,ELEMENT_SET_NO,REV_AT_EPOCH,BSTAR,MEAN_MOTION_DOT,MEAN_MOTION_DDOT
DONGPO 02,2022-098J,2026-07-01T03:30:35.290656,15.77627463,.00036599,97.5540,314.5769,244.1897,115.8991,0,U,53452,999,21699,.98806048E-3,.16711E-2,0
DONGPO 01,2022-098K,2026-07-02T02:38:56.551200,15.75344738,.00026015,97.5613,316.1134,223.2356,136.8705,0,U,53453,999,21710,.60529274E-3,.91755E-3,0
STARLINK-4400,2022-099D,2026-07-02T06:20:48.655392,15.05654359,.00017955,97.2855,301.5147,121.1199,239.0205,0,U,53468,999,21321,.17549134E-4,.197E-5,0
STARLINK-4621,2022-105AE,2026-07-02T04:49:06.218688,15.05654978,.00021561,97.2877,61.4686,92.7628,267.3847,0,U,53676,999,21046,-.48632929E-4,-.758E-5,0
SHERPA-LTC2,2022-107BG,2026-07-02T05:08:50.436096,14.69831362,.03928347,53.2357,156.7110,268.2526,87.3428,0,U,53754,999,20475,.21433885E-3,.4059E-4,0
CENTISPACE-1 S3,2022-108A,2026-07-02T06:07:59.155392,14.61271141,.00102645,53.5341,352.9500,34.1633,326.0001,0,U,53757,999,20373,.14374711E-3,.525E-5,0
CENTISPACE-1 S4,2022-108B,2026-07-02T05:35:12.574752,14.61956641,.00094613,53.5316,350.4905,23.3494,336.7909,0,U,53758,999,20376,.18011625E-3,.719E-5,0
BLUEWALKER-3,2022-111AL,2026-07-02T02:56:13.519680,15.38465823,.00050718,53.2305,323.8461,211.8542,148.2157,0,U,53807,999,21250,.23077147E-3,.8504E-4,0
YUNHAI-1 03,2022-115A,2026-07-02T06:32:04.261056,14.32728943,.00050096,98.5536,181.2279,17.6029,342.5328,0,U,53877,999,19767,.14758161E-3,.358E-5,0
CENTISPACE-1 S5,2022-126A,2026-07-02T06:01:48.870048,14.63037001,.00147201,54.9976,152.6769,100.2427,260.0227,0,U,54020,999,19924,.205572E-3,.873E-5,0
CENTISPACE-1 S6,2022-126B,2026-07-02T06:02:47.999616,14.62301346,.00165358,54.9978,154.6097,100.9586,259.3269,0,U,54021,999,19920,.11626766E-3,.403E-5,0
OTB-3-GAZELLE,2022-127A,2026-07-02T05:58:11.630208,14.42680116,.0013927,98.3950,174.7241,138.9660,221.2581,0,U,54023,999,19653,.68790299E-4,.186E-5,0
ASO-S,2022-129A,2026-07-02T06:37:03.490176,14.52069481,.00153832,98.2749,188.1401,49.9901,310.2642,0,U,54029,999,19761,.8194602E-4,.287E-5,0
HJ-2E,2022-132A,2026-07-02T06:29:47.007744,15.22537675,.00186521,97.3795,187.3769,320.5193,39.4684,0,U,54035,999,20671,.3780821E-3,.8744E-4,0
COSMOS 2561,2022-137A,2026-07-01T12:59:32.597664,15.52060592,.000879,96.9172,241.0071,342.1279,17.9664,0,U,54109,999,20857,.26338E-3,.15822E-3,0
GONETS-M 23,2022-139A,2026-07-02T05:38:41.574624,12.42891409,.00215582,82.5082,338.9415,186.2690,173.8123,0,U,54150,999,16751,.61767532E-4,.18E-6,0
GONETS-M 24,2022-139B,2026-07-02T06:55:50.130624,12.42892099,.0016627,82.4999,337.9577,195.9406,164.1152,0,U,54151,999,16752,.1116856E-3,.25E-6,0
GONETS-M 25,2022-139C,2026-07-02T06:36:16.028064,12.42890541,.00205518,82.5064,338.6606,194.9998,165.0474,0,U,54152,999,16752,.93343236E-4,.23E-6,0
SKIF-D,2022-139D,2026-06-29T15:33:21.063744,5.00427113,.00074078,89.9495,96.6644,193.5770,166.4619,0,U,54153,999,6473,0,.3E-7,0
MATS,2022-147A,2026-07-02T06:29:27.262752,15.05451149,.001366,97.6828,184.8019,142.1152,218.1038,0,U,54227,999,20003,.27529342E-3,.3899E-4,0
JILIN-1 GAOFEN 03D54,2022-155D,2026-07-01T22:05:20.665248,16.16704390,.001082,97.6159,338.1985,265.2459,94.7591,0,U,54254,999,20266,.88353493E-3,.1311852E-1,.2545491E-5
EOS-6 (OCEANSAT-3),2022-158A,2026-07-01T14:45:17.099136,14.47008826,.00004714,98.3548,280.6181,54.2776,305.8460,0,U,54361,999,18992,.90615141E-4,.286E-5,0
DONGPO 09,2022-167D,2026-07-02T07:46:01.174944,15.36677140,.00034415,97.6908,355.0097,81.5624,278.6009,0,U,54685,999,19777,.37209891E-3,.13252E-3,0
DONGPO 08,2022-167E,2026-07-02T06:22:23.577888,15.33953498,.00093666,97.6872,352.0553,112.9919,247.2312,0,U,54686,999,19763,.36958772E-3,.12078E-3,0
2022-167F,2022-167F,2026-07-02T07:31:59.105856,16.01749644,.00041062,97.6049,13.2020,247.3699,112.7145,0,U,54687,999,19924,.75456484E-3,.422091E-2,.80374711E-4
DONGPO 10,2022-167H,2026-07-02T06:20:28.867200,15.34766376,.00059488,97.6952,354.0411,67.5832,292.6040,0,U,54689,999,19767,.36404027E-3,.12196E-3,0
JILIN-1 GAOFEN 03D48,2022-167P,2026-07-02T07:40:05.333088,15.35549551,.0007319,97.6888,353.4819,70.0885,290.1145,0,U,54695,999,19771,.36316476E-3,.12479E-3,0
STAR VIBE,2023-001A,2026-07-02T06:46:47.714880,15.43038034,.00066567,97.3162,247.8107,70.4282,289.7684,0,U,55009,999,19455,.36455635E-3,.16025E-3,0
BRO-8,2023-001C,2026-07-02T06:56:00.699936,15.49997912,.00062132,97.3197,248.6994,81.7769,278.4187,0,U,55011,999,19454,.6434803E-3,.36102E-3,0
CONNECTA T1.2,2023-001D,2026-07-02T03:16:00.778368,15.51923001,.00053068,97.3254,254.1030,55.6561,304.5193,0,U,55012,999,19486,.86126484E-3,.5186E-3,0
