DONGPO 02               
1 53452U 22098J   26182.14624179  .00167110  00000+0  98806-3 0  9992
2 53452  97.5540 314.5769 0003659 244.1897 115.8991 15.77627463216993
DONGPO 01               
1 53453U 22098K   26183.11037675  .00091755  00000+0  60529-3 0  9992
2 53453  97.5613 316.1134 0002601 223.2356 136.8705 15.75344738217102
STARLINK-4400           
1 53468U 22099D   26183.26445203  .00000197  00000+0  17549-4 0  9990
2 53468  97.2855 301.5147 0001795 121.1199 239.0205 15.05654359213214
STARLINK-4621           
1 53676U 22105AE  26183.20076642 -.00000758  00000+0 -48633-4 0  9993
2 53676  97.2877  61.4686 0002156  92.7628 267.3847 15.05654978210468
SHERPA-LTC2             
1 53754U 22107BG  26183.21447264  .00004059  00000+0  21434-3 0  9990
2 53754  53.2357 156.7110 0392834 268.2526  87.3428 14.69831362204755
CENTISPACE-1 S3         
1 53757U 22108A   26183.25554578  .00000525  00000+0  14375-3 0  9995
2 53757  53.5341 352.9500 0010264  34.1633 326.0001 14.61271141203732
CENTISPACE-1 S4         
1 53758U 22108B   26183.23278443  .00000719  00000+0  18012-3 0  9995
2 53758  53.5316 350.4905 0009461  23.3494 336.7909 14.61956641203762
BLUEWALKER-3            
1 53807U 22111AL  26183.12237870  .00008504  00000+0  23077-3 0  9998
2 53807  53.2305 323.8461 0005071 211.8542 148.2157 15.38465823212509
YUNHAI-1 03             
1 53877U 22115A   26183.27227154  .00000358  00000+0  14758-3 0  9994
2 53877  98.5536 181.2279 0005009  17.6029 342.5328 14.32728943197677
CENTISPACE-1 S5         
1 54020U 22126A   26183.25126007  .00000873  00000+0  20557-3 0  9996
2 54020  54.9976 152.6769 0014720 100.2427 260.0227 14.63037001199248
CENTISPACE-1 S6         
1 54021U 22126B   26183.25194444  .00000403  00000+0  11627-3 0  9994
2 54021  54.9978 154.6097 0016535 100.9586 259.3269 14.62301346199204
OTB-3-GAZELLE           
1 54023U 22127A   26183.24874572  .00000186  00000+0  68790-4 0  9995
2 54023  98.3950 174.7241 0013927 138.9660 221.2581 14.42680116196539
ASO-S                   
1 54029U 22129A   26183.27573484  .00000287  00000+0  81946-4 0  9994
2 54029  98.2749 188.1401 0015383  49.9901 310.2642 14.52069481197618
HJ-2E                   
1 54035U 22132A   26183.27068296  .00008744  00000+0  37808-3 0  9998
2 54035  97.3795 187.3769 0018652 320.5193  39.4684 15.22537675206718
COSMOS 2561             
1 54109U 22137A   26182.54134951  .00015822  00000+0  26338-3 0  9997
2 54109  96.9172 241.0071 0008790 342.1279  17.9664 15.52060592208572
GONETS-M 23             
1 54150U 22139A   26183.23520341  .00000018  00000+0  61768-4 0  9992
2 54150  82.5082 338.9415 0021558 186.2690 173.8123 12.42891409167513
GONETS-M 24             
1 54151U 22139B   26183.28877466  .00000025  00000+0  11169-3 0  9998
2 54151  82.4999 337.9577 0016627 195.9406 164.1152 12.42892099167523
GONETS-M 25             
1 54152U 22139C   26183.27518551  .00000023  00000+0  93343-4 0  9998
2 54152  82.5064 338.6606 0020551 194.9998 165.0474 12.42890541167522
SKIF-D                  
1 54153U 22139D   26180.64816046  .00000003  00000+0  00000+0 0  9998
2 54153  89.9495  96.6644 0007407 193.5770 166.4619  5.00427113 64735
MATS                    
1 54227U 22147A   26183.27045443  .00003899  00000+0  27529-3 0  9991
2 54227  97.6828 184.8019 0013660 142.1152 218.1038 15.05451149200038
JILIN-1 GAOFEN 03D54    
1 54254U 22155D   26182.92037807  .01311852  25455-5  88353-3 0  9997
2 54254  97.6159 338.1985 0010820 265.2459  94.7591 16.16704390202668
EOS-6 (OCEANSAT-3)      
1 54361U 22158A   26182.61478124  .00000286  00000+0  90615-4 0  9999
2 54361  98.3548 280.6181 0000471  54.2776 305.8460 14.47008826189922
DONGPO 09               
1 54685U 22167D   26183.32362471  .00013252  00000+0  37210-3 0  9992
2 54685  97.6908 355.0097 0003441  81.5624 278.6009 15.36677140197779
DONGPO 08               
1 54686U 22167E   26183.26555067  .00012078  00000+0  36959-3 0  9995
2 54686  97.6872 352.0553 0009366 112.9919 247.2312 15.33953498197636
2022-167F               
1 54687U 22167F   26183.31387854  .00422091  80375-4  75456-3 0  9992
2 54687  97.6049  13.2020 0004106 247.3699 112.7145 16.01749644199244
DONGPO 10               
1 54689U 22167H   26183.26422300  .00012196  00000+0  36404-3 0  9997
2 54689  97.6952 354.0411 0005948  67.5832 292.6040 15.34766376197678
JILIN-1 GAOFEN 03D48    
1 54695U 22167P   26183.31950617  .00012479  00000+0  36316-3 0  9993
2 54695  97.6888 353.4819 0007319  70.0885 290.1145 15.35549551197718
STAR VIBE               
1 55009U 23001A   26183.28249670  .00016025  00000+0  36456-3 0  9993
2 55009  97.3162 247.8107 0006656  70.4282 289.7684 15.43038034194553
BRO-8                   
1 55011U 23001C   26183.28889699  .00036102  00000+0  64348-3 0  9996
2 55011  97.3197 248.6994 0006213  81.7769 278.4187 15.49997912194548
CONNECTA T1.2           
1 55012U 23001D   26183.13612012  .00051860  00000+0  86126-3 0  9990
2 55012  97.3254 254.1030 0005306  55.6561 304.5193 15.51923001194862
